[
  {
    "name": "ONEWEB-0379",
    "noradId": "49305",
    "line1": "1 49305U 21090AC  26200.46403620  .00000175  00000+0  43703-3 0  9990",
    "line2": "2 49305  87.8969 283.2777 0001889  99.7568 260.3775 13.14502880231802"
  },
  {
    "name": "ONEWEB-0380",
    "noradId": "49306",
    "line1": "1 49306U 21090AD  26200.55889434 -.00000021  00000+0 -85622-4 0  9991",
    "line2": "2 49306  87.9185 298.5255 0001963  95.2317 264.9040 13.19726669230699"
  },
  {
    "name": "ONEWEB-0381",
    "noradId": "49307",
    "line1": "1 49307U 21090AE  26200.20405977  .00000060  00000+0  11638-3 0  9996",
    "line2": "2 49307  87.9184 268.0610 0001810  94.6385 265.4955 13.20769980234055"
  },
  {
    "name": "ONEWEB-0382",
    "noradId": "49308",
    "line1": "1 49308U 21090AF  26200.41787954  .00000024  00000+0  27488-4 0  9999",
    "line2": "2 49308  87.9184 268.0121 0001747  98.1106 262.0225 13.20772257234078"
  },
  {
    "name": "ONEWEB-0383",
    "noradId": "49309",
    "line1": "1 49309U 21090AG  26200.22933892  .00000242  00000+0  61948-3 0  9993",
    "line2": "2 49309  87.8969 283.3166 0001902 103.6460 256.4882 13.14503193231804"
  },
  {
    "name": "ONEWEB-0384",
    "noradId": "49310",
    "line1": "1 49310U 21090AH  26200.25398787  .00000021  00000+0  19698-4 0  9997",
    "line2": "2 49310  87.9182 268.0889 0001596 103.0871 257.0441 13.20814685234062"
  },
  {
    "name": "ONEWEB-0385",
    "noradId": "49311",
    "line1": "1 49311U 21090AJ  26200.48689515  .00000025  00000+0  30082-4 0  9999",
    "line2": "2 49311  87.9178 268.0037 0001855  96.6528 263.4817 13.20770477234065"
  },
  {
    "name": "ONEWEB-0386",
    "noradId": "49312",
    "line1": "1 49312U 21090AK  26200.20069072 -.00000129  00000+0 -35029-3 0  9992",
    "line2": "2 49312  87.9188 268.0532 0001822  99.0743 261.0597 13.20771910234047"
  },
  {
    "name": "ONEWEB-0387",
    "noradId": "49313",
    "line1": "1 49313U 21090AL  26200.41282054  .00000062  00000+0  12068-3 0  9995",
    "line2": "2 49313  87.9171 268.0286 0001908  88.5356 271.5996 13.20770700234072"
  },
  {
    "name": "ONEWEB-0388",
    "noradId": "49314",
    "line1": "1 49314U 21090AM  26200.32670563 -.00000158  00000+0 -42782-3 0  9996",
    "line2": "2 49314  87.9185 298.5698 0001860 100.3951 259.7391 13.19724797230654"
  },
  {
    "name": "ONEWEB-0389",
    "noradId": "50469",
    "line1": "1 50469U 21132A   26200.47157744 -.00000161  00000+0 -44823-3 0  9995",
    "line2": "2 50469  87.9149 359.4456 0001680  84.7268 275.4055 13.17648955222339"
  },
  {
    "name": "ONEWEB-0390",
    "noradId": "50470",
    "line1": "1 50470U 21132B   26200.47326550 -.00000060  00000+0 -18748-3 0  9995",
    "line2": "2 50470  87.9150 359.4464 0002074  90.1601 269.9768 13.17648287222339"
  },
  {
    "name": "ONEWEB-0391",
    "noradId": "50471",
    "line1": "1 50471U 21132C   26200.47495174 -.00000132  00000+0 -37275-3 0  9991",
    "line2": "2 50471  87.9152 359.4558 0001870  68.5258 291.6073 13.17649194222335"
  },
  {
    "name": "ONEWEB-0392",
    "noradId": "50472",
    "line1": "1 50472U 21132D   26200.42939317 -.00000106  00000+0 -30488-3 0  9999",
    "line2": "2 50472  87.9160 359.4357 0001693  83.1748 276.9576 13.17649365222369"
  },
  {
    "name": "ONEWEB-0393",
    "noradId": "50473",
    "line1": "1 50473U 21132E   26200.48087715  .00000051  00000+0  99335-4 0  9996",
    "line2": "2 50473  87.9148 359.4399 0001762  89.4306 270.7028 13.17647630222365"
  },
  {
    "name": "ONEWEB-0394",
    "noradId": "50474",
    "line1": "1 50474U 21132F   26200.64913160  .00000150  00000+0  34741-3 0  9996",
    "line2": "2 50474  87.9201 328.9884 0001758  99.6964 260.4367 13.18685730225879"
  },
  {
    "name": "ONEWEB-0395",
    "noradId": "50475",
    "line1": "1 50475U 21132G   26200.44056344 -.00000463  00000+0 -13418-2 0  9993",
    "line2": "2 50475  87.8888  14.6437 0001961  85.1968 274.9383 13.11418513219948"
  },
  {
    "name": "ONEWEB-0396",
    "noradId": "50476",
    "line1": "1 50476U 21132H   26200.41476069  .00000027  00000+0  35472-4 0  9991",
    "line2": "2 50476  87.9202 329.0479 0001714  97.0691 263.0636 13.18686307225885"
  },
  {
    "name": "ONEWEB-0397",
    "noradId": "50477",
    "line1": "1 50477U 21132J   26200.42993014  .00000019  00000+0  14592-4 0  9998",
    "line2": "2 50477  87.9203 329.0447 0001642 101.2417 258.8900 13.18686852225865"
  },
  {
    "name": "ONEWEB-0398",
    "noradId": "50478",
    "line1": "1 50478U 21132K   26200.48466663  .00000377  00000+0  10268-2 0  9991",
    "line2": "2 50478  87.8895  14.6279 0002118  88.6214 271.5157 13.11415492219844"
  },
  {
    "name": "ONEWEB-0399",
    "noradId": "50479",
    "line1": "1 50479U 21132L   26200.47110738  .00000558  00000+0  15399-2 0  9991",
    "line2": "2 50479  87.8892  14.6422 0001452  81.0424 279.0869 13.11417573219836"
  },
  {
    "name": "ONEWEB-0400",
    "noradId": "50480",
    "line1": "1 50480U 21132M   26200.63564244  .00000032  00000+0  48791-4 0  9997",
    "line2": "2 50480  87.9200 328.9938 0002034  96.7401 263.3963 13.18685397225881"
  },
  {
    "name": "ONEWEB-0401",
    "noradId": "50481",
    "line1": "1 50481U 21132N   26200.37766643  .00000084  00000+0  18015-3 0  9998",
    "line2": "2 50481  87.9204 329.0423 0001801 106.0138 254.1193 13.18686848225852"
  },
  {
    "name": "ONEWEB-0402",
    "noradId": "50482",
    "line1": "1 50482U 21132P   26200.34056016 -.00000169  00000+0 -46221-3 0  9998",
    "line2": "2 50482  87.9202 329.0385 0001653 113.1377 246.9930 13.18685820225876"
  },
  {
    "name": "ONEWEB-0403",
    "noradId": "50483",
    "line1": "1 50483U 21132Q   26200.36586218  .00000115  00000+0  25799-3 0  9999",
    "line2": "2 50483  87.9201 329.0581 0001806  95.3989 264.7349 13.18687231225830"
  },
  {
    "name": "ONEWEB-0404",
    "noradId": "50484",
    "line1": "1 50484U 21132R   26200.45244306 -.00000074  00000+0 -24404-3 0  9997",
    "line2": "2 50484  87.8890  14.6425 0001740  81.0829 279.0496 13.11418562219927"
  },
  {
    "name": "ONEWEB-0405",
    "noradId": "50485",
    "line1": "1 50485U 21132S   26200.37935330  .00000133  00000+0  30366-3 0  9991",
    "line2": "2 50485  87.9206 329.0406 0002348  95.2048 264.9352 13.18685545226237"
  },
  {
    "name": "ONEWEB-0406",
    "noradId": "50486",
    "line1": "1 50486U 21132T   26200.59854340  .00000117  00000+0  26324-3 0  9998",
    "line2": "2 50486  87.9200 329.0116 0001635  83.3010 276.8308 13.18687614225898"
  },
  {
    "name": "ONEWEB-0407",
    "noradId": "50487",
    "line1": "1 50487U 21132U   26200.36416197  .00000089  00000+0  19334-3 0  9999",
    "line2": "2 50487  87.9203 329.0515 0002030 103.8122 256.3237 13.18685035225807"
  },
  {
    "name": "ONEWEB-0409",
    "noradId": "50488",
    "line1": "1 50488U 21132V   26200.45074979 -.00000177  00000+0 -53477-3 0  9994",
    "line2": "2 50488  87.8895  14.6324 0001853  82.0712 278.0626 13.11418459219818"
  },
  {
    "name": "ONEWEB-0412",
    "noradId": "50489",
    "line1": "1 50489U 21132W   26200.65587477  .00000039  00000+0  67412-4 0  9999",
    "line2": "2 50489  87.9201 329.0012 0001727 107.4673 252.6648 13.18687070225932"
  },
  {
    "name": "ONEWEB-0413",
    "noradId": "50490",
    "line1": "1 50490U 21132X   26200.43329994 -.00000200  00000+0 -54072-3 0  9994",
    "line2": "2 50490  87.9193 329.0416 0001899 108.6174 251.5164 13.18686155225845"
  },
  {
    "name": "ONEWEB-0414",
    "noradId": "50491",
    "line1": "1 50491U 21132Y   26200.64575569  .00000119  00000+0  26789-3 0  9990",
    "line2": "2 50491  87.9203 328.9845 0001719 100.7030 259.4296 13.18687205225904"
  },
  {
    "name": "ONEWEB-0417",
    "noradId": "50492",
    "line1": "1 50492U 21132Z   26200.65418595 -.00000111  00000+0 -31364-3 0  9996",
    "line2": "2 50492  87.9195 328.9997 0001802  92.0965 268.0374 13.18685454225880"
  },
  {
    "name": "ONEWEB-0418",
    "noradId": "50493",
    "line1": "1 50493U 21132AA  26200.58829065  .00000090  00000+0  19580-3 0  9997",
    "line2": "2 50493  87.9196 329.0141 0001844  90.8283 269.3061 13.18686480225933"
  },
  {
    "name": "ONEWEB-0419",
    "noradId": "50494",
    "line1": "1 50494U 21132AB  26200.37975089  .00000092  00000+0  19959-3 0  9995",
    "line2": "2 50494  87.9203 329.0563 0002059  92.9391 267.1977 13.18666386225826"
  },
  {
    "name": "ONEWEB-0420",
    "noradId": "50495",
    "line1": "1 50495U 21132AC  26200.64743781  .00000050  00000+0  94271-4 0  9993",
    "line2": "2 50495  87.9196 329.0033 0002039 103.2976 256.8384 13.18684427225859"
  },
  {
    "name": "ONEWEB-0421",
    "noradId": "50496",
    "line1": "1 50496U 21132AD  26200.41308334  .00000042  00000+0  73302-4 0  9993",
    "line2": "2 50496  87.9194 329.0482 0001549 104.5276 255.6028 13.18685864225867"
  },
  {
    "name": "ONEWEB-0424",
    "noradId": "50497",
    "line1": "1 50497U 21132AE  26200.60192087  .00000073  00000+0  15144-3 0  9994",
    "line2": "2 50497  87.9203 329.0104 0002163  92.2245 267.9135 13.18687658225916"
  },
  {
    "name": "ONEWEB-0426",
    "noradId": "50498",
    "line1": "1 50498U 21132AF  26200.40885078 -.00001495  00000+0 -38259-2 0  9994",
    "line2": "2 50498  87.9204 329.0399 0001186  84.5028 275.6239 13.18679991225834"
  },
  {
    "name": "ONEWEB-0427",
    "noradId": "50499",
    "line1": "1 50499U 21132AG  26200.37260663  .00000125  00000+0  28557-3 0  9996",
    "line2": "2 50499  87.9204 329.0364 0001792  93.1777 266.9561 13.18687436225853"
  },
  {
    "name": "ONEWEB-0429",
    "noradId": "50500",
    "line1": "1 50500U 21132AH  26200.35910456 -.00000138  00000+0 -38162-3 0  9998",
    "line2": "2 50500  87.9198 329.0604 0001958 104.7210 255.4140 13.18686060225825"
  },
  {
    "name": "ONEWEB-0430",
    "noradId": "50501",
    "line1": "1 50501U 21132AJ  26200.65080349 -.00000147  00000+0 -40608-3 0  9999",
    "line2": "2 50501  87.9195 329.0016 0002124 102.9322 257.2047 13.18686247225902"
  }
]